[{"OBJECT_NAME":"STARLINK-3512","OBJECT_ID":"2022-016AF","EPOCH":"2026-03-09T23:26:42.491616","MEAN_MOTION":15.08839759,"ECCENTRICITY":0.00014741,"INCLINATION":53.2198,"RA_OF_ASC_NODE":307.7586,"ARG_OF_PERICENTER":97.9391,"MEAN_ANOMALY":262.1769,"EPHEMERIS_TYPE":0,"CLASSIFICATION_TYPE":"U","NORAD_CAT_ID":51743,"ELEMENT_SET_NO":999,"REV_AT_EPOCH":22374,"BSTAR":2.9924762e-5,"MEAN_MOTION_DOT":1.88e-6,"MEAN_MOTION_DDOT":0},{"OBJECT_NAME":"JILIN-01 KUANFU 02B 4","OBJECT_ID":"2024-169D","EPOCH":"2026-03-09T23:04:43.463424","MEAN_MOTION":15.0922271,"ECCENTRICITY":0.00080501,"INCLINATION":97.5522,"RA_OF_ASC_NODE":159.355,"ARG_OF_PERICENTER":260.1533,"MEAN_ANOMALY":99.8787,"EPHEMERIS_TYPE":0,"CLASSIFICATION_TYPE":"U","NORAD_CAT_ID":61192,"ELEMENT_SET_NO":999,"REV_AT_EPOCH":8086,"BSTAR":0.00035789888,"MEAN_MOTION_DOT":5.634e-5,"MEAN_MOTION_DDOT":0}]
